<?xml version="1.0" encoding="UTF-8" standalone="yes"?>
<!DOCTYPE shakemap-data [
<!ELEMENT shakemap-data (earthquake,stationlist)>
<!ELEMENT stationlist (station+)>
<!ATTLIST stationlist
  created	CDATA	#REQUIRED
>

<!ELEMENT station (comp+)>
<!ATTLIST station
  code		CDATA 			#REQUIRED
  name		CDATA 			#REQUIRED
  insttype	CDATA 			#REQUIRED
  lat		CDATA 			#REQUIRED
  lon		CDATA 			#REQUIRED
  source	(SCSN|CGS|NSMP) 	'SCSN'
  netid		CDATA			#REQUIRED
  commtype	(DIG|ANA) 		'DIG'
  dist          CDATA                   '10.0'
  loc		CDATA			''
>

<!ELEMENT comp (acc,vel,psa*)>
<!ATTLIST comp
  name          CDATA  #REQUIRED
  originalname  CDATA  #IMPLIED
>

<!ELEMENT acc EMPTY>
<!ELEMENT vel EMPTY>
<!ELEMENT psa03 EMPTY>
<!ELEMENT psa10 EMPTY>
<!ELEMENT psa30 EMPTY>
<!ATTLIST acc
  value  CDATA         #REQUIRED
  flag   CDATA        ''
>
<!ATTLIST vel
  value CDATA          #REQUIRED
  flag  CDATA         ''
>
<!ATTLIST psa03
  value CDATA          #REQUIRED
  flag  CDATA         ''
>
<!ATTLIST psa10
  value CDATA          #REQUIRED
  flag  CDATA         ''
>
<!ATTLIST psa30
  value CDATA          #REQUIRED
  flag  CDATA         ''
>
<!ELEMENT  earthquake EMPTY>
<!ATTLIST earthquake
  id 		ID	#REQUIRED
  lat		CDATA	#REQUIRED
  lon		CDATA	#REQUIRED
  mag		CDATA	#REQUIRED
  year          CDATA   #REQUIRED
  month         CDATA   #REQUIRED
  day           CDATA   #REQUIRED
  hour          CDATA   #REQUIRED
  minute        CDATA   #REQUIRED
  second        CDATA   #REQUIRED
  timezone      CDATA   #REQUIRED
  depth		CDATA	#REQUIRED
  type		CDATA	#REQUIRED
  locstring	CDATA	#REQUIRED
  pga		CDATA   #REQUIRED
  pgv		CDATA   #REQUIRED
  sp03		CDATA   #REQUIRED
  sp10		CDATA   #REQUIRED
  sp30		CDATA   #REQUIRED
  created	CDATA	#REQUIRED
>
]>
<shakemap-data code_version="3.5" map_version="3">
<earthquake id="15819827" lat="62.21010" lon="-149.37230" mag="4.09" year="2017" month="4" day="26" hour="3" minute="29" second="9" timezone="GMT" depth="41.3736" network="ak" locstring="25 miles E of Talkeetna" created="1493178734" />
<stationlist created="1493178734">
<station code="2704" name="Anchorage Old Federal Bldg, AK, USA" insttype="UAF" lat="61.2191" lon="-149.8941" dist="120.873008" source="NSMP" netid="NP" commtype="DIG" loc="" intensity="2.3">
<comp name="HNE">
<pga value="0.1615" flag="0" />
<pgv value="0.0771" flag="0" />
</comp>
<comp name="HNN">
<pga value="0.1748" flag="0" />
<pgv value="0.0641" flag="0" />
</comp>
</station>
<station code="2730" name="Trims Camp DOT Maintenance Station, AK, USA" insttype="UAF" lat="63.4159" lon="-145.7504" dist="231.352458" source="NSMP" netid="NP" commtype="DIG" loc="" intensity="1.0">
<comp name="HNE">
<pga value="0.0214" flag="0" />
<pgv value="0.0134" flag="0" />
</comp>
<comp name="HNN">
<pga value="0.0266" flag="0" />
<pgv value="0.0163" flag="0" />
</comp>
</station>
<station code="8007" name="Anchorage International Airport, AK, USA" insttype="UAF" lat="61.1824" lon="-149.9967" dist="125.912603" source="NSMP" netid="NP" commtype="DIG" loc="" intensity="2.5">
<comp name="HNE">
<pga value="0.3087" flag="0" />
<pgv value="0.1047" flag="0" />
</comp>
<comp name="HNN">
<pga value="0.1875" flag="0" />
<pgv value="0.0845" flag="0" />
</comp>
</station>
<station code="8011" name="Russian Jack Springs State Park, Anchorage, AK, US" insttype="UAF" lat="61.2090" lon="-149.7857" dist="120.738706" source="NSMP" netid="NP" commtype="DIG" loc="" intensity="1.6">
<comp name="HNE">
<pga value="0.0747" flag="0" />
<pgv value="0.0350" flag="0" />
</comp>
<comp name="HNN">
<pga value="0.0669" flag="0" />
<pgv value="0.0195" flag="0" />
</comp>
</station>
<station code="8021" name="Klatt Elementary, Anchorage, AK, USA" insttype="UAF" lat="61.1129" lon="-149.9095" dist="131.910052" source="NSMP" netid="NP" commtype="DIG" loc="" intensity="1.6">
<comp name="HNE">
<pga value="0.0867" flag="0" />
<pgv value="0.0257" flag="0" />
</comp>
<comp name="HNN">
<pga value="0.0910" flag="0" />
<pgv value="0.0330" flag="0" />
</comp>
</station>
<station code="8025" name="BS Lutheran Church, Anchorage, AK, USA" insttype="UAF" lat="61.1471" lon="-149.8939" dist="128.218469" source="NSMP" netid="NP" commtype="DIG" loc="" intensity="2.7">
<comp name="HNE">
<pga value="0.3849" flag="0" />
<pgv value="0.1462" flag="0" />
</comp>
<comp name="HNN">
<pga value="0.2343" flag="0" />
<pgv value="0.1009" flag="0" />
</comp>
</station>
<station code="8026" name="Baptist Church of Christ, Anchorage, AK, USA" insttype="UAF" lat="61.2089" lon="-149.8289" dist="121.180293" source="NSMP" netid="NP" commtype="DIG" loc="" intensity="2.5">
<comp name="HNE">
<pga value="0.2531" flag="0" />
<pgv value="0.1087" flag="0" />
</comp>
<comp name="HNN">
<pga value="0.2719" flag="0" />
<pgv value="0.0713" flag="0" />
</comp>
</station>
<station code="8027" name="State Fish and Game, Anchorage, AK, USA" insttype="UAF" lat="61.1609" lon="-149.8892" dist="126.750428" source="NSMP" netid="NP" commtype="DIG" loc="" intensity="2.6">
<comp name="HNE">
<pga value="0.2862" flag="0" />
<pgv value="0.1279" flag="0" />
</comp>
<comp name="HNN">
<pga value="0.1687" flag="0" />
<pgv value="0.0684" flag="0" />
</comp>
</station>
<station code="8028" name="College Gate Elem School, Anchorage, AK, USA" insttype="UAF" lat="61.1925" lon="-149.7820" dist="122.398787" source="NSMP" netid="NP" commtype="DIG" loc="" intensity="1.6">
<comp name="HNE">
<pga value="0.1054" flag="0" />
<pgv value="0.0339" flag="0" />
</comp>
<comp name="HNN">
<pga value="0.0794" flag="0" />
<pgv value="0.0291" flag="0" />
</comp>
</station>
<station code="8029" name="Tudor Elem School, Anchorage, AK, USA" insttype="UAF" lat="61.1739" lon="-149.8501" dist="124.988236" source="NSMP" netid="NP" commtype="DIG" loc="" intensity="2.1">
<comp name="HNE">
<pga value="0.1615" flag="0" />
<pgv value="0.0560" flag="0" />
</comp>
<comp name="HNN">
<pga value="0.1247" flag="0" />
<pgv value="0.0574" flag="0" />
</comp>
</station>
<station code="8030" name="Police HQ, Anchorage, AK, USA" insttype="UAF" lat="61.1795" lon="-149.8058" dist="123.962282" source="NSMP" netid="NP" commtype="DIG" loc="" intensity="1.6">
<comp name="HNE">
<pga value="0.1277" flag="0" />
<pgv value="0.0355" flag="0" />
</comp>
<comp name="HNN">
<pga value="0.1005" flag="0" />
<pgv value="0.0323" flag="0" />
</comp>
</station>
<station code="8036" name="DOI Office of Aircraft Services, Anchorage, AK, US" insttype="UAF" lat="61.1779" lon="-149.9657" dist="125.951702" source="NSMP" netid="NP" commtype="DIG" loc="" intensity="2.7">
<comp name="HNE">
<pga value="0.2230" flag="0" />
<pgv value="0.0834" flag="0" />
</comp>
<comp name="HNN">
<pga value="0.3243" flag="0" />
<pgv value="0.1371" flag="0" />
</comp>
</station>
<station code="8037" name="NOAA Weather Facility, Anchorage, AK, USA" insttype="UAF" lat="61.1562" lon="-149.9849" dist="128.408014" source="NSMP" netid="NP" commtype="DIG" loc="" intensity="2.7">
<comp name="HNE">
<pga value="0.1890" flag="0" />
<pgv value="0.0891" flag="0" />
</comp>
<comp name="HNN">
<pga value="0.2263" flag="0" />
<pgv value="0.1446" flag="0" />
</comp>
</station>
<station code="8038" name="Fire Station No.1, Anchorage, AK, USA" insttype="UAF" lat="61.2184" lon="-149.8827" dist="120.808941" source="NSMP" netid="NP" commtype="DIG" loc="" intensity="2.3">
<comp name="HNE">
<pga value="0.1150" flag="0" />
<pgv value="0.0759" flag="0" />
</comp>
<comp name="HNN">
<pga value="0.1437" flag="0" />
<pgv value="0.0490" flag="0" />
</comp>
</station>
<station code="8052" name="5th Ave, Seward, AK" insttype="UAF" lat="60.1026" lon="-149.4379" dist="237.993865" source="NSMP" netid="NP" commtype="DIG" loc="" intensity="1.0">
<comp name="HNE">
<pga value="0.0231" flag="0" />
<pgv value="0.0125" flag="0" />
</comp>
<comp name="HNN">
<pga value="0.0180" flag="0" />
<pgv value="0.0097" flag="0" />
</comp>
</station>
<station code="ABBK" name="Woodburn Dr, Anchorage, AK" insttype="UAF" lat="61.1138" lon="-149.6990" dist="129.882242" source="NSMP" netid="NP" commtype="DIG" loc="" intensity="2.4">
<comp name="HNE">
<pga value="0.3399" flag="0" />
<pgv value="0.0854" flag="0" />
</comp>
<comp name="HNN">
<pga value="0.3744" flag="0" />
<pgv value="0.0943" flag="0" />
</comp>
</station>
<station code="AHOU" name="City Hall, Houston, AK" insttype="UAF" lat="61.6320" lon="-149.7968" dist="79.608440" source="NSMP" netid="NP" commtype="DIG" loc="" intensity="2.5">
<comp name="HNE">
<pga value="0.1983" flag="0" />
<pgv value="0.0914" flag="0" />
</comp>
<comp name="HNN">
<pga value="0.1904" flag="0" />
<pgv value="0.1137" flag="0" />
</comp>
</station>
<station code="ALUK" name="Akula Dr, Anchorage, AK" insttype="UAF" lat="61.1029" lon="-149.8156" dist="131.971919" source="NSMP" netid="NP" commtype="DIG" loc="" intensity="1.5">
<comp name="HNE">
<pga value="0.0985" flag="0" />
<pgv value="0.0245" flag="0" />
</comp>
<comp name="HNN">
<pga value="0.1537" flag="0" />
<pgv value="0.0322" flag="0" />
</comp>
</station>
<station code="AMJG" name="N Sams Dr, Wasilla, AK" insttype="UAF" lat="61.6191" lon="-149.3215" dist="77.701205" source="NSMP" netid="NP" commtype="DIG" loc="" intensity="2.7">
<comp name="HNE">
<pga value="0.4444" flag="0" />
<pgv value="0.1065" flag="0" />
</comp>
<comp name="HNN">
<pga value="0.5698" flag="0" />
<pgv value="0.1519" flag="0" />
</comp>
</station>
<station code="ARTY" name="Chugach Park, Peters Creek, AK" insttype="UAF" lat="61.3970" lon="-149.4375" dist="99.488526" source="NSMP" netid="NP" commtype="DIG" loc="" intensity="2.7">
<comp name="HNE">
<pga value="0.3835" flag="0" />
<pgv value="0.0850" flag="0" />
</comp>
<comp name="HNN">
<pga value="0.5061" flag="0" />
<pgv value="0.1474" flag="0" />
</comp>
</station>
<station code="AU22" name="Augustine Mound, Augustine Volcano, Alaska" insttype="UAF" lat="59.3702" lon="-153.3573" dist="384.806335" source="AEIC" netid="AV" commtype="DIG" loc="" intensity="1.0">
<comp name="BHE">
<pga value="0.0020" flag="0" />
<pgv value="0.0012" flag="0" />
</comp>
<comp name="BHN">
<pga value="0.0024" flag="0" />
<pgv value="0.0013" flag="0" />
</comp>
</station>
<station code="AUCH" name="Augustine Cone H, Augustine Volcano, Alaska" insttype="UAF" lat="59.3626" lon="-153.4447" dist="388.187095" source="AEIC" netid="AV" commtype="DIG" loc="" intensity="1.0">
<comp name="BHE">
<pga value="0.0014" flag="0" />
<pgv value="0.0007" flag="0" />
</comp>
<comp name="BHN">
<pga value="0.0017" flag="0" />
<pgv value="0.0012" flag="0" />
</comp>
</station>
<station code="AUL" name="Lava Flow, Augustine Volcano, Alaska" insttype="UAF" lat="59.3816" lon="-153.4379" dist="386.219899" source="AEIC" netid="AV" commtype="DIG" loc="" intensity="1.0">
<comp name="BHE">
<pga value="0.0016" flag="0" />
<pgv value="0.0007" flag="0" />
</comp>
<comp name="BHN">
<pga value="0.0017" flag="0" />
<pgv value="0.0007" flag="0" />
</comp>
</station>
<station code="AUQ" name="Augustine Qik'rtamen, Augustine Volcano, Alaska" insttype="UAF" lat="59.3549" lon="-153.4143" dist="387.967333" source="AEIC" netid="AV" commtype="DIG" loc="" intensity="1.0">
<comp name="BHN">
<pga value="0.0017" flag="0" />
<pgv value="0.0010" flag="0" />
</comp>
</station>
<station code="AUSB" name="Augustine South Buttress, Augustine Volcano, Alask" insttype="UAF" lat="59.3330" lon="-153.4284" dist="390.432802" source="AEIC" netid="AV" commtype="DIG" loc="" intensity="1.0">
<comp name="BHE">
<pga value="0.0022" flag="0" />
<pgv value="0.0010" flag="0" />
</comp>
<comp name="BHN">
<pga value="0.0013" flag="0" />
<pgv value="0.0006" flag="0" />
</comp>
</station>
<station code="AUWS" name="Augustine Summit Station, Augustine Volcano, Alask" insttype="UAF" lat="59.3585" lon="-153.4608" dist="389.062996" source="AEIC" netid="AV" commtype="DIG" loc="" intensity="1.0">
<comp name="BHE">
<pga value="0.0008" flag="0" />
<pgv value="0.0005" flag="0" />
</comp>
<comp name="BHN">
<pga value="0.0010" flag="0" />
<pgv value="0.0005" flag="0" />
</comp>
</station>
<station code="BAL" name="Baldy Mountain, AK, USA" insttype="UAF" lat="61.0360" lon="-142.3462" dist="395.527027" source="AEIC" netid="AK" commtype="DIG" loc="" intensity="1.0">
<comp name="BNE">
<pga value="0.0013" flag="0" />
</comp>
<comp name="BNN">
<pga value="0.0018" flag="0" />
</comp>
<comp name="BHE">
<pgv value="0.0013" flag="0" />
</comp>
<comp name="BHN">
<pgv value="0.0022" flag="0" />
</comp>
</station>
<station code="BARN" name="Barnard Glacier, AK, USA" insttype="UAF" lat="61.0595" lon="-141.6622" dist="428.628671" source="AEIC" netid="AK" commtype="DIG" loc="" intensity="1.0">
<comp name="BHE">
<pga value="0.0012" flag="0" />
<pgv value="0.0010" flag="0" />
</comp>
<comp name="BHN">
<pga value="0.0016" flag="0" />
<pgv value="0.0011" flag="0" />
</comp>
</station>
<station code="BPAW" name="Bear Paw Mountain, AK, USA" insttype="UAF" lat="64.0997" lon="-150.9873" dist="228.972045" source="AEIC" netid="AK" commtype="DIG" loc="" intensity="1.0">
<comp name="BNE">
<pga value="0.0066" flag="0" />
</comp>
<comp name="BNN">
<pga value="0.0050" flag="0" />
</comp>
<comp name="BHE">
<pgv value="0.0029" flag="0" />
</comp>
<comp name="BHN">
<pgv value="0.0021" flag="0" />
</comp>
</station>
<station code="BRLK" name="Bradley Lake, AK, USA" insttype="UAF" lat="59.7511" lon="-150.9063" dist="288.635290" source="AEIC" netid="AK" commtype="DIG" loc="" intensity="1.0">
<comp name="BNE">
<pga value="0.0089" flag="0" />
</comp>
<comp name="BNN">
<pga value="0.0093" flag="0" />
</comp>
<comp name="BHE">
<pgv value="0.0025" flag="0" />
</comp>
<comp name="BHN">
<pgv value="0.0028" flag="0" />
</comp>
</station>
<station code="BRSE" name="Bradley Lake South, AK, USA" insttype="UAF" lat="59.7417" lon="-150.7414" dist="287.217779" source="AEIC" netid="AK" commtype="DIG" loc="" intensity="1.0">
<comp name="BHE">
<pga value="0.0040" flag="0" />
<pgv value="0.0023" flag="0" />
</comp>
<comp name="BHN">
<pga value="0.0038" flag="0" />
<pgv value="0.0017" flag="0" />
</comp>
</station>
<station code="BWN" name="Browne, AK, USA" insttype="UAF" lat="64.1732" lon="-149.2991" dist="222.203679" source="AEIC" netid="AK" commtype="DIG" loc="" intensity="1.0">
<comp name="BHE">
<pga value="0.0085" flag="0" />
<pgv value="0.0031" flag="0" />
</comp>
<comp name="BHN">
<pga value="0.0071" flag="0" />
<pgv value="0.0038" flag="0" />
</comp>
</station>
<station code="CAPN" name="Captain Cook Nikiski, AK, USA" insttype="UAF" lat="60.7683" lon="-151.1539" dist="190.657985" source="AEIC" netid="AK" commtype="DIG" loc="" intensity="1.0">
<comp name="BNE">
<pga value="0.0814" flag="0" />
</comp>
<comp name="BNN">
<pga value="0.0541" flag="0" />
</comp>
<comp name="BHE">
<pgv value="0.0183" flag="0" />
</comp>
<comp name="BHN">
<pgv value="0.0168" flag="0" />
</comp>
</station>
<station code="CAST" name="Castle Rocks, AK, USA" insttype="UAF" lat="63.4188" lon="-152.0844" dist="196.843722" source="AEIC" netid="AK" commtype="DIG" loc="" intensity="1.0">
<comp name="BNE">
<pga value="0.0083" flag="0" />
</comp>
<comp name="BNN">
<pga value="0.0063" flag="0" />
</comp>
<comp name="BHE">
<pgv value="0.0026" flag="0" />
</comp>
<comp name="BHN">
<pgv value="0.0028" flag="0" />
</comp>
</station>
<station code="CCB" name="Clear Creek Butte, AK, USA" insttype="UAF" lat="64.6453" lon="-147.8053" dist="284.776748" source="AEIC" netid="AK" commtype="DIG" loc="" intensity="1.0">
<comp name="BHE">
<pga value="0.0042" flag="0" />
<pgv value="0.0014" flag="0" />
</comp>
<comp name="BHN">
<pga value="0.0034" flag="0" />
<pgv value="0.0012" flag="0" />
</comp>
</station>
<station code="CHUM" name="Lake Minchumina, AK, USA" insttype="UAF" lat="63.8827" lon="-152.3152" dist="241.410823" source="AEIC" netid="AK" commtype="DIG" loc="" intensity="1.0">
<comp name="BHE">
<pga value="0.0113" flag="0" />
<pgv value="0.0054" flag="0" />
</comp>
<comp name="BHN">
<pga value="0.0111" flag="0" />
<pgv value="0.0041" flag="0" />
</comp>
</station>
<station code="CNP" name="China Poot, AK, USA" insttype="UAF" lat="59.5251" lon="-151.2373" dist="317.838160" source="AEIC" netid="AK" commtype="DIG" loc="" intensity="1.0">
<comp name="BNE">
<pga value="0.0035" flag="0" />
</comp>
<comp name="BNN">
<pga value="0.0035" flag="0" />
</comp>
<comp name="BHE">
<pgv value="0.0015" flag="0" />
</comp>
<comp name="BHN">
<pgv value="0.0015" flag="0" />
</comp>
</station>
<station code="CUT" name="Chulitna, AK, USA" insttype="UAF" lat="62.4058" lon="-150.2625" dist="65.584377" source="AEIC" netid="AK" commtype="DIG" loc="" intensity="3.9">
<comp name="BHE">
<pga value="1.6986" flag="0" />
<pgv value="0.3144" flag="0" />
</comp>
<comp name="BHN">
<pga value="3.7639" flag="0" />
<pgv value="0.9914" flag="0" />
</comp>
</station>
<station code="CYK" name="Cape Yakataga, AK, USA" insttype="UAF" lat="60.0823" lon="-142.4872" dist="440.332035" source="AEIC" netid="AK" commtype="DIG" loc="" intensity="1.0">
<comp name="BNE">
<pga value="0.0039" flag="0" />
</comp>
<comp name="BNN">
<pga value="0.0033" flag="0" />
</comp>
<comp name="BHE">
<pgv value="0.0016" flag="0" />
</comp>
<comp name="BHN">
<pgv value="0.0015" flag="0" />
</comp>
</station>
<station code="DAM1" name="Bradley Dam 1, AK, USA" insttype="UAF" lat="59.7554" lon="-150.8513" dist="287.344606" source="AEIC" netid="AK" commtype="DIG" loc="" intensity="1.0">
<comp name="HNE">
<pga value="0.0039" flag="0" />
<pgv value="0.0035" flag="0" />
</comp>
<comp name="HNN">
<pga value="0.0051" flag="0" />
<pgv value="0.0024" flag="0" />
</comp>
</station>
<station code="DAM2" name="Bradley Dam 2, AK, USA" insttype="UAF" lat="59.7553" lon="-150.8555" dist="287.418066" source="AEIC" netid="AK" commtype="DIG" loc="" intensity="1.0">
<comp name="HNE">
<pga value="0.0029" flag="0" />
<pgv value="0.0014" flag="0" />
</comp>
<comp name="HNN">
<pga value="0.0034" flag="0" />
<pgv value="0.0021" flag="0" />
</comp>
</station>
<station code="DIV" name="Divide Microwave, AK, USA" insttype="UAF" lat="61.1292" lon="-145.7749" dist="228.409765" source="AEIC" netid="AK" commtype="DIG" loc="" intensity="1.0">
<comp name="BHE">
<pga value="0.0234" flag="0" />
<pgv value="0.0058" flag="0" />
</comp>
<comp name="BHN">
<pga value="0.0180" flag="0" />
<pgv value="0.0049" flag="0" />
</comp>
</station>
<station code="DOT" name="Dot Lake, AK, USA" insttype="UAF" lat="63.6482" lon="-144.0697" dist="314.956152" source="AEIC" netid="AK" commtype="DIG" loc="" intensity="1.0">
<comp name="BNE">
<pga value="0.0029" flag="0" />
</comp>
<comp name="BNN">
<pga value="0.0046" flag="0" />
</comp>
<comp name="BHE">
<pgv value="0.0024" flag="0" />
</comp>
<comp name="BHN">
<pgv value="0.0016" flag="0" />
</comp>
</station>
<station code="EYAK" name="Cordova Ski Area, AK, USA" insttype="UAF" lat="60.5487" lon="-145.7500" dist="270.233523" source="AEIC" netid="AK" commtype="DIG" loc="" intensity="1.0">
<comp name="BNE">
<pga value="0.0041" flag="0" />
</comp>
<comp name="BNN">
<pga value="0.0039" flag="0" />
</comp>
<comp name="BHE">
<pgv value="0.0021" flag="0" />
</comp>
<comp name="BHN">
<pgv value="0.0022" flag="0" />
</comp>
</station>
<station code="FA01" name="Chena-GS Fire Station, Fairbanks, AK, USA" insttype="UAF" lat="64.8348" lon="-147.9371" dist="303.217911" source="AEIC" netid="AK" commtype="DIG" loc="" intensity="1.0">
<comp name="HNE">
<pga value="0.0033" flag="0" />
<pgv value="0.0015" flag="0" />
</comp>
<comp name="HNN">
<pga value="0.0019" flag="0" />
<pgv value="0.0011" flag="0" />
</comp>
</station>
<station code="FA02" name="Ester Fire Station, AK, USA" insttype="UAF" lat="64.8456" lon="-148.0090" dist="303.559455" source="AEIC" netid="AK" commtype="DIG" loc="" intensity="1.0">
<comp name="HNE">
<pga value="0.0182" flag="0" />
<pgv value="0.0080" flag="0" />
</comp>
<comp name="HNN">
<pga value="0.0138" flag="0" />
<pgv value="0.0061" flag="0" />
</comp>
</station>
